CCSDS_OMM_VERS = 2.0
CREATION_DATE  = 
ORIGINATOR     = 

OBJECT_NAME    = STARLINK-36115
OBJECT_ID      = 2025-286X
CENTER_NAME    = EARTH
REF_FRAME      = TEME
TIME_SYSTEM    = UTC
MEAN_ELEMENT_THEORY = SGP/SGP4

EPOCH          = 2025-12-18T14:00:03.000384
MEAN_MOTION    = 15.82622906
ECCENTRICITY   = .00010205
INCLINATION    = 53.1552
RA_OF_ASC_NODE = 20.9819
ARG_OF_PERICENTER = 67.1157
MEAN_ANOMALY   = 82.3036

EPHEMERIS_TYPE = 0
CLASSIFICATION_TYPE = U
NORAD_CAT_ID   = 66946
ELEMENT_SET_NO = 999
REV_AT_EPOCH   = 293
BSTAR          = -.74397307E-2
MEAN_MOTION_DOT = -.1417135E-1
MEAN_MOTION_DDOT = 0

CCSDS_OMM_VERS = 2.0
CREATION_DATE  = 
ORIGINATOR     = 

OBJECT_NAME    = STARLINK-36089
OBJECT_ID      = 2025-286Y
CENTER_NAME    = EARTH
REF_FRAME      = TEME
TIME_SYSTEM    = UTC
MEAN_ELEMENT_THEORY = SGP/SGP4

EPOCH          = 2025-12-18T14:00:03.000384
MEAN_MOTION    = 15.82620716
ECCENTRICITY   = .00011724
INCLINATION    = 53.1550
RA_OF_ASC_NODE = 20.9725
ARG_OF_PERICENTER = 69.2935
MEAN_ANOMALY   = 84.6855

EPHEMERIS_TYPE = 0
CLASSIFICATION_TYPE = U
NORAD_CAT_ID   = 66947
ELEMENT_SET_NO = 999
REV_AT_EPOCH   = 293
BSTAR          = -.76311495E-2
MEAN_MOTION_DOT = -.1449422E-1
MEAN_MOTION_DDOT = 0

CCSDS_OMM_VERS = 2.0
CREATION_DATE  = 
ORIGINATOR     = 

OBJECT_NAME    = STARLINK-36116
OBJECT_ID      = 2025-286Z
CENTER_NAME    = EARTH
REF_FRAME      = TEME
TIME_SYSTEM    = UTC
MEAN_ELEMENT_THEORY = SGP/SGP4

EPOCH          = 2025-12-18T14:00:03.000384
MEAN_MOTION    = 15.82607879
ECCENTRICITY   = .0001128
INCLINATION    = 53.1552
RA_OF_ASC_NODE = 20.9769
ARG_OF_PERICENTER = 69.0589
MEAN_ANOMALY   = 82.8594

EPHEMERIS_TYPE = 0
CLASSIFICATION_TYPE = U
NORAD_CAT_ID   = 66948
ELEMENT_SET_NO = 999
REV_AT_EPOCH   = 293
BSTAR          = -.75474887E-2
MEAN_MOTION_DOT = -.1434514E-1
MEAN_MOTION_DDOT = 0

CCSDS_OMM_VERS = 2.0
CREATION_DATE  = 
ORIGINATOR     = 

OBJECT_NAME    = STARLINK-36096
OBJECT_ID      = 2025-286AA
CENTER_NAME    = EARTH
REF_FRAME      = TEME
TIME_SYSTEM    = UTC
MEAN_ELEMENT_THEORY = SGP/SGP4

EPOCH          = 2025-12-18T14:00:03.000384
MEAN_MOTION    = 15.82631992
ECCENTRICITY   = .00009179
INCLINATION    = 53.1551
RA_OF_ASC_NODE = 20.9682
ARG_OF_PERICENTER = 66.3863
MEAN_ANOMALY   = 89.6867

EPHEMERIS_TYPE = 0
CLASSIFICATION_TYPE = U
NORAD_CAT_ID   = 66949
ELEMENT_SET_NO = 999
REV_AT_EPOCH   = 293
BSTAR          = -.7729812E-2
MEAN_MOTION_DOT = -.146653E-1
MEAN_MOTION_DDOT = 0

CCSDS_OMM_VERS = 2.0
CREATION_DATE  = 
ORIGINATOR     = 

OBJECT_NAME    = STARLINK-36111
OBJECT_ID      = 2025-286AB
CENTER_NAME    = EARTH
REF_FRAME      = TEME
TIME_SYSTEM    = UTC
MEAN_ELEMENT_THEORY = SGP/SGP4

EPOCH          = 2025-12-18T14:00:03.000384
MEAN_MOTION    = 15.82650522
ECCENTRICITY   = .00011233
INCLINATION    = 53.1550
RA_OF_ASC_NODE = 20.9593
ARG_OF_PERICENTER = 65.2153
MEAN_ANOMALY   = 95.1854

EPHEMERIS_TYPE = 0
CLASSIFICATION_TYPE = U
NORAD_CAT_ID   = 66950
ELEMENT_SET_NO = 999
REV_AT_EPOCH   = 293
BSTAR          = -.80206011E-2
MEAN_MOTION_DOT = -.1516426E-1
MEAN_MOTION_DDOT = 0

CCSDS_OMM_VERS = 2.0
CREATION_DATE  = 
ORIGINATOR     = 

OBJECT_NAME    = STARLINK-35999
OBJECT_ID      = 2025-286AC
CENTER_NAME    = EARTH
REF_FRAME      = TEME
TIME_SYSTEM    = UTC
MEAN_ELEMENT_THEORY = SGP/SGP4

EPOCH          = 2025-12-18T14:00:03.000384
MEAN_MOTION    = 15.82646223
ECCENTRICITY   = .00010935
INCLINATION    = 53.1551
RA_OF_ASC_NODE = 20.9545
ARG_OF_PERICENTER = 70.8527
MEAN_ANOMALY   = 91.8119

EPHEMERIS_TYPE = 0
CLASSIFICATION_TYPE = U
NORAD_CAT_ID   = 66951
ELEMENT_SET_NO = 999
REV_AT_EPOCH   = 293
BSTAR          = -.81405827E-2
MEAN_MOTION_DOT = -.1536054E-1
MEAN_MOTION_DDOT = 0

CCSDS_OMM_VERS = 2.0
CREATION_DATE  = 
ORIGINATOR     = 

OBJECT_NAME    = STARLINK-36122
OBJECT_ID      = 2025-286AD
CENTER_NAME    = EARTH
REF_FRAME      = TEME
TIME_SYSTEM    = UTC
MEAN_ELEMENT_THEORY = SGP/SGP4

EPOCH          = 2025-12-18T14:00:03.000384
MEAN_MOTION    = 15.82643309
ECCENTRICITY   = .00011697
INCLINATION    = 53.1552
RA_OF_ASC_NODE = 20.9639
ARG_OF_PERICENTER = 67.8389
MEAN_ANOMALY   = 90.4266

EPHEMERIS_TYPE = 0
CLASSIFICATION_TYPE = U
NORAD_CAT_ID   = 66952
ELEMENT_SET_NO = 999
REV_AT_EPOCH   = 293
BSTAR          = -.79028434E-2
MEAN_MOTION_DOT = -.1496373E-1
MEAN_MOTION_DDOT = 0

CCSDS_OMM_VERS = 2.0
CREATION_DATE  = 
ORIGINATOR     = 

OBJECT_NAME    = HULIANWANG DIGUI-114
OBJECT_ID      = 2025-287A
CENTER_NAME    = EARTH
REF_FRAME      = TEME
TIME_SYSTEM    = UTC
MEAN_ELEMENT_THEORY = SGP/SGP4

EPOCH          = 2025-12-15T20:15:59.937408
MEAN_MOTION    = 13.68689195
ECCENTRICITY   = .00087999
INCLINATION    = 86.4960
RA_OF_ASC_NODE = 345.0232
ARG_OF_PERICENTER = 195.8466
MEAN_ANOMALY   = 164.2419

EPHEMERIS_TYPE = 0
CLASSIFICATION_TYPE = U
NORAD_CAT_ID   = 66953
ELEMENT_SET_NO = 999
REV_AT_EPOCH   = 95
BSTAR          = .25636052E-4
MEAN_MOTION_DOT = .39E-6
MEAN_MOTION_DDOT = 0

CCSDS_OMM_VERS = 2.0
CREATION_DATE  = 
ORIGINATOR     = 

OBJECT_NAME    = HULIANWANG DIGUI-115
OBJECT_ID      = 2025-287B
CENTER_NAME    = EARTH
REF_FRAME      = TEME
TIME_SYSTEM    = UTC
MEAN_ELEMENT_THEORY = SGP/SGP4

EPOCH          = 2025-12-17T17:52:09.139872
MEAN_MOTION    = 13.68792369
ECCENTRICITY   = .00090008
INCLINATION    = 86.4975
RA_OF_ASC_NODE = 344.3338
ARG_OF_PERICENTER = 188.9372
MEAN_ANOMALY   = 171.1628

EPHEMERIS_TYPE = 0
CLASSIFICATION_TYPE = U
NORAD_CAT_ID   = 66954
ELEMENT_SET_NO = 999
REV_AT_EPOCH   = 121
BSTAR          = .15683947E-4
MEAN_MOTION_DOT = .3E-6
MEAN_MOTION_DDOT = 0

CCSDS_OMM_VERS = 2.0
CREATION_DATE  = 
ORIGINATOR     = 

OBJECT_NAME    = HULIANWANG DIGUI-116
OBJECT_ID      = 2025-287C
CENTER_NAME    = EARTH
REF_FRAME      = TEME
TIME_SYSTEM    = UTC
MEAN_ELEMENT_THEORY = SGP/SGP4

EPOCH          = 2025-12-17T12:36:13.610592
MEAN_MOTION    = 13.68336268
ECCENTRICITY   = .00084488
INCLINATION    = 86.4911
RA_OF_ASC_NODE = 344.4027
ARG_OF_PERICENTER = 182.8757
MEAN_ANOMALY   = 177.2355

EPHEMERIS_TYPE = 0
CLASSIFICATION_TYPE = U
NORAD_CAT_ID   = 66955
ELEMENT_SET_NO = 999
REV_AT_EPOCH   = 118
BSTAR          = .15602229E-3
MEAN_MOTION_DOT = .15E-5
MEAN_MOTION_DDOT = 0

CCSDS_OMM_VERS = 2.0
CREATION_DATE  = 
ORIGINATOR     = 

OBJECT_NAME    = HULIANWANG DIGUI-117
OBJECT_ID      = 2025-287D
CENTER_NAME    = EARTH
REF_FRAME      = TEME
TIME_SYSTEM    = UTC
MEAN_ELEMENT_THEORY = SGP/SGP4

EPOCH          = 2025-12-16T06:45:06.569856
MEAN_MOTION    = 13.69018692
ECCENTRICITY   = .00077617
INCLINATION    = 86.4974
RA_OF_ASC_NODE = 344.8670
ARG_OF_PERICENTER = 181.5999
MEAN_ANOMALY   = 178.5137

EPHEMERIS_TYPE = 0
CLASSIFICATION_TYPE = U
NORAD_CAT_ID   = 66956
ELEMENT_SET_NO = 999
REV_AT_EPOCH   = 101
BSTAR          = .23352809E-4
MEAN_MOTION_DOT = .37E-6
MEAN_MOTION_DDOT = 0

CCSDS_OMM_VERS = 2.0
CREATION_DATE  = 
ORIGINATOR     = 

OBJECT_NAME    = HULIANWANG DIGUI-118
OBJECT_ID      = 2025-287E
CENTER_NAME    = EARTH
REF_FRAME      = TEME
TIME_SYSTEM    = UTC
MEAN_ELEMENT_THEORY = SGP/SGP4

EPOCH          = 2025-12-17T14:19:24.841920
MEAN_MOTION    = 13.68572802
ECCENTRICITY   = .00077566
INCLINATION    = 86.4948
RA_OF_ASC_NODE = 344.3824
ARG_OF_PERICENTER = 174.8369
MEAN_ANOMALY   = 185.2872

EPHEMERIS_TYPE = 0
CLASSIFICATION_TYPE = U
NORAD_CAT_ID   = 66957
ELEMENT_SET_NO = 999
REV_AT_EPOCH   = 119
BSTAR          = .15194853E-3
MEAN_MOTION_DOT = .147E-5
MEAN_MOTION_DDOT = 0

