STARLINK-36115          
1 66946U 25286X   25352.58336806 -.01417135  00000+0 -74397-2 0  9995
2 66946  53.1552  20.9819 0001020  67.1157  82.3036 15.82622906  2930
STARLINK-36089          
1 66947U 25286Y   25352.58336806 -.01449422  00000+0 -76311-2 0  9998
2 66947  53.1550  20.9725 0001172  69.2935  84.6855 15.82620716  2931
STARLINK-36116          
1 66948U 25286Z   25352.58336806 -.01434514  00000+0 -75475-2 0  9995
2 66948  53.1552  20.9769 0001128  69.0589  82.8594 15.82607879  2931
STARLINK-36096          
1 66949U 25286AA  25352.58336806 -.01466530  00000+0 -77298-2 0  9994
2 66949  53.1551  20.9682 0000917  66.3863  89.6867 15.82631992  2936
STARLINK-36111          
1 66950U 25286AB  25352.58336806 -.01516426  00000+0 -80206-2 0  9999
2 66950  53.1550  20.9593 0001123  65.2153  95.1854 15.82650522  2936
STARLINK-35999          
1 66951U 25286AC  25352.58336806 -.01536054  00000+0 -81406-2 0  9992
2 66951  53.1551  20.9545 0001093  70.8527  91.8119 15.82646223  2938
STARLINK-36122          
1 66952U 25286AD  25352.58336806 -.01496373  00000+0 -79028-2 0  9999
2 66952  53.1552  20.9639 0001169  67.8389  90.4266 15.82643309  2930
HULIANWANG DIGUI-114    
1 66953U 25287A   25349.84444372  .00000039  00000+0  25636-4 0  9999
2 66953  86.4960 345.0232 0008799 195.8466 164.2419 13.68689195   952
HULIANWANG DIGUI-115    
1 66954U 25287B   25351.74455023  .00000030  00000+0  15684-4 0  9990
2 66954  86.4975 344.3338 0009000 188.9372 171.1628 13.68792369  1210
HULIANWANG DIGUI-116    
1 66955U 25287C   25351.52515753  .00000150  00000+0  15602-3 0  9996
2 66955  86.4911 344.4027 0008448 182.8757 177.2355 13.68336268  1184
HULIANWANG DIGUI-117    
1 66956U 25287D   25350.28132604  .00000037  00000+0  23353-4 0  9996
2 66956  86.4974 344.8670 0007761 181.5999 178.5137 13.69018692  1016
HULIANWANG DIGUI-118    
1 66957U 25287E   25351.59681530  .00000147  00000+0  15195-3 0  9995
2 66957  86.4948 344.3824 0007756 174.8369 185.2872 13.68572802  1191
